start=new Date('2022-01-09T00:00:00.000Z').valueOf();
sats=[{"LAUNCH_DATE":"2021-01-20","MEAN_MOTION_DOT":"-0.00000129","REV_AT_EPOCH":"5381","RA_OF_ASC_NODE":"49.0970","ECCENTRICITY":"0.00016230","FILE":"3267514","OBJECT_NAME":"STARLINK-2011","CLASSIFICATION_TYPE":"U","ARG_OF_PERICENTER":"75.7066","OBJECT_ID":"2021-005B","REF_FRAME":"TEME","PERIOD":"95.593","RCS_SIZE":"LARGE","MEAN_ANOMALY":"284.4103","EPOCH":"2022-01-08T19:33:34.672032","APOAPSIS":"548.363","EPHEMERIS_TYPE":"0","ELEMENT_SET_NO":"999","COUNTRY_CODE":"US","TIME_SYSTEM":"UTC","TLE_LINE1":"1 47350U 21005B   22008.81498463 -.00000129  00000-0  10241-4 0  9997","BSTAR":"0.00001024100000","SEMIMAJOR_AXIS":"6925.374","GP_ID":"193490636","SITE":"AFETR","MEAN_MOTION":"15.06391627","PERIAPSIS":"546.115","TLE_LINE2":"2 47350  53.0506  49.0970 0001623  75.7066 284.4103 15.06391627 53811","NORAD_CAT_ID":"47350","DECAY_DATE":null,"CENTER_NAME":"EARTH","MEAN_MOTION_DDOT":"0.0000000000000","INCLINATION":"53.0506","OBJECT_TYPE":"PAYLOAD","MEAN_ELEMENT_THEORY":"SGP4"},{"GP_ID":"193491388","SITE":"AFETR","SEMIMAJOR_AXIS":"6925.366","MEAN_MOTION":"15.06394271","COUNTRY_CODE":"US","TIME_SYSTEM":"UTC","BSTAR":"0.00012977000000","TLE_LINE1":"1 47351U 21005C   22008.71178384  .00001652  00000-0  12977-3 0  9992","CENTER_NAME":"EARTH","DECAY_DATE":null,"OBJECT_TYPE":"PAYLOAD","MEAN_ELEMENT_THEORY":"SGP4","MEAN_MOTION_DDOT":"0.0000000000000","INCLINATION":"53.0557","PERIAPSIS":"546.184","TLE_LINE2":"2 47351  53.0557   9.5431 0001512  79.6904 280.4256 15.06394271 54355","NORAD_CAT_ID":"47351","RA_OF_ASC_NODE":"9.5431","ECCENTRICITY":"0.00015120","FILE":"3267514","OBJECT_NAME":"STARLINK-2017","CLASSIFICATION_TYPE":"U","LAUNCH_DATE":"2021-01-20","MEAN_MOTION_DOT":"0.00001652","REV_AT_EPOCH":"5435","MEAN_ANOMALY":"280.4256","EPHEMERIS_TYPE":"0","APOAPSIS":"548.278","ELEMENT_SET_NO":"999","EPOCH":"2022-01-08T17:04:58.123776","OBJECT_ID":"2021-005C","ARG_OF_PERICENTER":"79.6904","REF_FRAME":"TEME","PERIOD":"95.593","RCS_SIZE":"LARGE"},{"GP_ID":"193491138","SITE":"AFETR","SEMIMAJOR_AXIS":"6925.352","MEAN_MOTION":"15.06398953","COUNTRY_CODE":"US","TIME_SYSTEM":"UTC","BSTAR":"0.00012871000000","TLE_LINE1":"1 47352U 21005D   22008.79655129  .00001636  00000-0  12871-3 0  9993","CENTER_NAME":"EARTH","DECAY_DATE":null,"MEAN_ELEMENT_THEORY":"SGP4","OBJECT_TYPE":"PAYLOAD","INCLINATION":"53.0562","MEAN_MOTION_DDOT":"0.0000000000000","PERIAPSIS":"546.189","TLE_LINE2":"2 47352  53.0562  49.1723 0001484  68.6193 291.4955 15.06398953 53800","NORAD_CAT_ID":"47352","RA_OF_ASC_NODE":"49.1723","ECCENTRICITY":"0.00014840","FILE":"3267514","OBJECT_NAME":"STARLINK-2034","CLASSIFICATION_TYPE":"U","LAUNCH_DATE":"2021-01-20","MEAN_MOTION_DOT":"0.00001636","REV_AT_EPOCH":"5380","MEAN_ANOMALY":"291.4955","APOAPSIS":"548.244","EPHEMERIS_TYPE":"0","ELEMENT_SET_NO":"999","EPOCH":"2022-01-08T19:07:02.031456","OBJECT_ID":"2021-005D","ARG_OF_PERICENTER":"68.6193","REF_FRAME":"TEME","RCS_SIZE":"LARGE","PERIOD":"95.592"},{"CENTER_NAME":"EARTH","DECAY_DATE":null,"MEAN_ELEMENT_THEORY":"SGP4","OBJECT_TYPE":"PAYLOAD","MEAN_MOTION_DDOT":"0.0000000000000","INCLINATION":"53.0566","PERIAPSIS":"545.937","TLE_LINE2":"2 47353  53.0566 354.6641 0001815  60.1561 299.9609 15.06406339 54563","NORAD_CAT_ID":"47353","SITE":"AFETR","GP_ID":"193489886","SEMIMAJOR_AXIS":"6925.329","MEAN_MOTION":"15.06406339","COUNTRY_CODE":"US","TIME_SYSTEM":"UTC","BSTAR":"0.00011682000000","TLE_LINE1":"1 47353U 21005E   22008.68550411  .00001459  00000-0  11682-3 0  9992","MEAN_ANOMALY":"299.9609","APOAPSIS":"548.451","EPHEMERIS_TYPE":"0","ELEMENT_SET_NO":"999","EPOCH":"2022-01-08T16:27:07.555104","OBJECT_ID":"2021-005E","ARG_OF_PERICENTER":"60.1561","REF_FRAME":"TEME","RCS_SIZE":"LARGE","PERIOD":"95.592","RA_OF_ASC_NODE":"354.6641","ECCENTRICITY":"0.00018150","FILE":"3267514","OBJECT_NAME":"STARLINK-2045","CLASSIFICATION_TYPE":"U","LAUNCH_DATE":"2021-01-20","REV_AT_EPOCH":"5456","MEAN_MOTION_DOT":"0.00001459"},{"OBJECT_ID":"2021-005F","ARG_OF_PERICENTER":"51.1764","RCS_SIZE":"LARGE","PERIOD":"95.592","REF_FRAME":"TEME","MEAN_ANOMALY":"308.9388","ELEMENT_SET_NO":"999","APOAPSIS":"548.485","EPHEMERIS_TYPE":"0","EPOCH":"2022-01-08T19:56:47.985216","MEAN_MOTION_DOT":"0.00000118","REV_AT_EPOCH":"5430","LAUNCH_DATE":"2021-01-20","ECCENTRICITY":"0.00018350","RA_OF_ASC_NODE":"14.0322","CLASSIFICATION_TYPE":"U","FILE":"3267514","OBJECT_NAME":"STARLINK-2046","PERIAPSIS":"545.944","NORAD_CAT_ID":"47354","TLE_LINE2":"2 47354  53.0558  14.0322 0001835  51.1764 308.9388 15.06399637 54304","CENTER_NAME":"EARTH","DECAY_DATE":null,"MEAN_ELEMENT_THEORY":"SGP4","OBJECT_TYPE":"PAYLOAD","MEAN_MOTION_DDOT":"0.0000000000000","INCLINATION":"53.0558","COUNTRY_CODE":"US","BSTAR":"0.00002686300000","TLE_LINE1":"1 47354U 21005F   22008.83111094  .00000118  00000-0  26863-4 0  9999","TIME_SYSTEM":"UTC","GP_ID":"193490136","SITE":"AFETR","SEMIMAJOR_AXIS":"6925.350","MEAN_MOTION":"15.06399637"},{"PERIAPSIS":"545.820","TLE_LINE2":"2 47355  53.0481   1.1425 0002027  48.9458 311.1706 15.06396619 55105","NORAD_CAT_ID":"47355","DECAY_DATE":null,"CENTER_NAME":"EARTH","INCLINATION":"53.0481","MEAN_MOTION_DDOT":"0.0000000000000","OBJECT_TYPE":"PAYLOAD","MEAN_ELEMENT_THEORY":"SGP4","COUNTRY_CODE":"US","TIME_SYSTEM":"UTC","BSTAR":"-0.00000552250000","TLE_LINE1":"1 47355U 21005G   22008.38833569 -.00000364  00000-0 -55225-5 0  9998","SEMIMAJOR_AXIS":"6925.359","GP_ID":"193466252","SITE":"AFETR","MEAN_MOTION":"15.06396619","ARG_OF_PERICENTER":"48.9458","OBJECT_ID":"2021-005G","REF_FRAME":"TEME","PERIOD":"95.592","RCS_SIZE":"LARGE","MEAN_ANOMALY":"311.1706","EPOCH":"2022-01-08T09:19:12.203616","EPHEMERIS_TYPE":"0","APOAPSIS":"548.628","ELEMENT_SET_NO":"999","LAUNCH_DATE":"2021-01-20","MEAN_MOTION_DOT":"-0.00000364","REV_AT_EPOCH":"5510","RA_OF_ASC_NODE":"1.1425","ECCENTRICITY":"0.00020270","FILE":"3267353","OBJECT_NAME":"STARLINK-2047","CLASSIFICATION_TYPE":"U"},{"DECAY_DATE":null,"CENTER_NAME":"EARTH","INCLINATION":"53.0562","MEAN_MOTION_DDOT":"0.0000000000000","MEAN_ELEMENT_THEORY":"SGP4","OBJECT_TYPE":"PAYLOAD","PERIAPSIS":"546.207","NORAD_CAT_ID":"47356","TLE_LINE2":"2 47356  53.0562  20.8079 0001481  66.9579 293.1566 15.06393728 54173","SEMIMAJOR_AXIS":"6925.368","SITE":"AFETR","GP_ID":"193461294","MEAN_MOTION":"15.06393728","COUNTRY_CODE":"US","TLE_LINE1":"1 47356U 21005H   22008.43441485  .00000804  00000-0  72889-4 0  9998","BSTAR":"0.00007288900000","TIME_SYSTEM":"UTC","MEAN_ANOMALY":"293.1566","EPOCH":"2022-01-08T10:25:33.443040","ELEMENT_SET_NO":"999","EPHEMERIS_TYPE":"0","APOAPSIS":"548.258","ARG_OF_PERICENTER":"66.9579","OBJECT_ID":"2021-005H","PERIOD":"95.593","RCS_SIZE":"LARGE","REF_FRAME":"TEME","ECCENTRICITY":"0.00014810","RA_OF_ASC_NODE":"20.8079","CLASSIFICATION_TYPE":"U","OBJECT_NAME":"STARLINK-2049","FILE":"3267276","REV_AT_EPOCH":"5417","MEAN_MOTION_DOT":"0.00000804","LAUNCH_DATE":"2021-01-20"},{"TLE_LINE2":"2 47357  53.0534  48.9736 0001315  66.5120 293.6007 15.06397599 53813","NORAD_CAT_ID":"47357","PERIAPSIS":"546.310","INCLINATION":"53.0534","MEAN_MOTION_DDOT":"0.0000000000000","MEAN_ELEMENT_THEORY":"SGP4","OBJECT_TYPE":"PAYLOAD","DECAY_DATE":null,"CENTER_NAME":"EARTH","TIME_SYSTEM":"UTC","TLE_LINE1":"1 47357U 21005J   22008.84078947  .00001191  00000-0  98855-4 0  9994","BSTAR":"0.00009885500000","COUNTRY_CODE":"US","MEAN_MOTION":"15.06397599","SEMIMAJOR_AXIS":"6925.356","GP_ID":"193490387","SITE":"AFETR","REF_FRAME":"TEME","PERIOD":"95.592","RCS_SIZE":"LARGE","ARG_OF_PERICENTER":"66.5120","OBJECT_ID":"2021-005J","EPOCH":"2022-01-08T20:10:44.210208","APOAPSIS":"548.132","EPHEMERIS_TYPE":"0","ELEMENT_SET_NO":"999","MEAN_ANOMALY":"293.6007","LAUNCH_DATE":"2021-01-20","MEAN_MOTION_DOT":"0.00001191","REV_AT_EPOCH":"5381","FILE":"3267514","OBJECT_NAME":"STARLINK-2050","CLASSIFICATION_TYPE":"U","RA_OF_ASC_NODE":"48.9736","ECCENTRICITY":"0.00013150"},{"NORAD_CAT_ID":"47358","TLE_LINE2":"2 47358  53.0562  18.9616 0001374  67.2095 292.9039 15.06392086 54233","PERIAPSIS":"546.286","MEAN_MOTION_DDOT":"0.0000000000000","INCLINATION":"53.0562","MEAN_ELEMENT_THEORY":"SGP4","OBJECT_TYPE":"PAYLOAD","DECAY_DATE":null,"CENTER_NAME":"EARTH","BSTAR":"0.00011055000000","TLE_LINE1":"1 47358U 21005K   22008.84355077  .00001365  00000-0  11055-3 0  9996","TIME_SYSTEM":"UTC","COUNTRY_CODE":"US","MEAN_MOTION":"15.06392086","SEMIMAJOR_AXIS":"6925.373","GP_ID":"193490637","SITE":"AFETR","RCS_SIZE":"LARGE","PERIOD":"95.593","REF_FRAME":"TEME","ARG_OF_PERICENTER":"67.2095","OBJECT_ID":"2021-005K","EPOCH":"2022-01-08T20:14:42.786528","ELEMENT_SET_NO":"999","APOAPSIS":"548.189","EPHEMERIS_TYPE":"0","MEAN_ANOMALY":"292.9039","MEAN_MOTION_DOT":"0.00001365","REV_AT_EPOCH":"5423","LAUNCH_DATE":"2021-01-20","CLASSIFICATION_TYPE":"U","OBJECT_NAME":"STARLINK-2055","FILE":"3267514","ECCENTRICITY":"0.00013740","RA_OF_ASC_NODE":"18.9616"},{"COUNTRY_CODE":"US","TIME_SYSTEM":"UTC","TLE_LINE1":"1 47359U 21005L   22008.78780199  .00002707  00000-0  20054-3 0  9997","BSTAR":"0.00020054000000","SEMIMAJOR_AXIS":"6925.356","GP_ID":"193491389","SITE":"AFETR","MEAN_MOTION":"15.06397596","PERIAPSIS":"546.393","TLE_LINE2":"2 47359  53.0549  44.2132 0001195  77.6042 282.5081 15.06397596 53874","NORAD_CAT_ID":"47359","DECAY_DATE":null,"CENTER_NAME":"EARTH","INCLINATION":"53.0549","MEAN_MOTION_DDOT":"0.0000000000000","MEAN_ELEMENT_THEORY":"SGP4","OBJECT_TYPE":"PAYLOAD","LAUNCH_DATE":"2021-01-20","MEAN_MOTION_DOT":"0.00002707","REV_AT_EPOCH":"5387","RA_OF_ASC_NODE":"44.2132","ECCENTRICITY":"0.00011950","FILE":"3267514","OBJECT_NAME":"STARLINK-2069","CLASSIFICATION_TYPE":"U","ARG_OF_PERICENTER":"77.6042","OBJECT_ID":"2021-005L","REF_FRAME":"TEME","PERIOD":"95.592","RCS_SIZE":"LARGE","MEAN_ANOMALY":"282.5081","EPOCH":"2022-01-08T18:54:26.091936","EPHEMERIS_TYPE":"0","APOAPSIS":"548.049","ELEMENT_SET_NO":"999"}];
